{
  "norad_id": 58215,
  "name": "STARLINK-30851",
  "history": [
    {
      "epoch": "2026-03-28T11:10:03.451872",
      "apogee_km": 484.0162050664958,
      "perigee_km": 482.09781522126013,
      "latitude_deg": 4.172833644752429,
      "longitude_deg": 46.17050208011642,
      "semi_major_axis_km": 6861.194010143878,
      "eccentricity": 0.0001398,
      "inclination_deg": 43.0041,
      "raan_deg": 87.9579,
      "arg_perigee_deg": 261.4441,
      "mean_anomaly_deg": 98.6252,
      "mean_motion_rev_day": 15.27577357
    },
    {
      "epoch": "2026-03-29T01:17:27.987360",
      "apogee_km": 484.0765157770893,
      "perigee_km": 482.00581220719687,
      "latitude_deg": -4.563108108093651,
      "longitude_deg": 102.66443039989099,
      "semi_major_axis_km": 6861.178163992143,
      "eccentricity": 0.0001509,
      "inclination_deg": 43.0038,
      "raan_deg": 84.6358,
      "arg_perigee_deg": 281.0968,
      "mean_anomaly_deg": 78.9713,
      "mean_motion_rev_day": 15.27582649
    }
  ]
}